NORAD_CAT_ID,OBJECT_NAME,OBJECT_TYPE,EPOCH,MEAN_MOTION,ECCENTRICITY,INCLINATION,RA_OF_ASC_NODE,ARG_OF_PERICENTER,MEAN_ANOMALY,BSTAR,MEAN_MOTION_DOT,MEAN_MOTION_DDOT,TLE_LINE0,TLE_LINE1,TLE_LINE2,SEMIMAJOR_AXIS,PERIOD,APOGEE,PERIGEE,DECAYED
51722.0,STARLINK-3535,PAYLOAD,2024-07-17 05:56:25,15.08843464,0.0001449,53.2174,144.6101,106.0902,254.025,3.0481e-05,1.97e-06,0.0,0 STARLINK-3535,1 51722U 22016J   24199.24751492  .00000197  00000-0  30481-4 0  9994,2 51722  53.2174 144.6101 0001449 106.0902 254.0250 15.08843464133844,6917.87,95.437,540.737,538.732,0.0
51722.0,STARLINK-3535,PAYLOAD,2024-07-17 13:53:20,15.08855903,0.0001299,53.2168,143.1246,105.4598,254.6537,0.00011457,1.537e-05,0.0,0 STARLINK-3535,1 51722U 22016J   24199.57870455  .00001537  00000-0  11457-3 0  9991,2 51722  53.2168 143.1246 0001299 105.4598 254.6537 15.08855903132820,6917.832,95.437,540.595,538.798,0.0
51722.0,STARLINK-3535,PAYLOAD,2024-07-18 02:36:26,15.08839779,0.000147,53.2164,140.7446,101.7353,258.3804,7.8616e-05,9.63e-06,0.0,0 STARLINK-3535,1 51722U 22016J   24200.10863734  .00000963  00000-0  78616-4 0  9998,2 51722  53.2164 140.7446 0001470 101.7353 258.3804 15.08839779133978,6917.881,95.438,540.763,538.729,0.0
51722.0,STARLINK-3535,PAYLOAD,2024-07-18 05:47:12,15.08841348,0.0001514,53.2162,140.149,107.5076,252.6081,0.00010456,1.377e-05,0.0,0 STARLINK-3535,1 51722U 22016J   24200.24111640  .00001377  00000-0  10456-3 0  9992,2 51722  53.2162 140.1490 0001514 107.5076 252.6081 15.08841348132927,6917.876,95.437,540.789,538.694,0.0
51722.0,STARLINK-3535,PAYLOAD,2024-07-19 00:51:50,15.08839365,0.0001727,53.2167,136.5795,113.0371,247.0803,0.00015892,2.242e-05,0.0,0 STARLINK-3535,1 51722U 22016J   24201.03599960  .00002242  00000-0  15892-3 0  9996,2 51722  53.2167 136.5795 0001727 113.0371 247.0803 15.08839365133045,6917.882,95.438,540.942,538.553,0.0
51722.0,STARLINK-3535,PAYLOAD,2024-07-20 05:28:47,15.08837104,0.00013,53.2161,131.2286,89.6587,270.4554,5.2011e-05,5.4e-06,0.0,0 STARLINK-3535,1 51722U 22016J   24202.22832308  .00000540  00000-0  52011-4 0  9998,2 51722  53.2161 131.2286 0001300  89.6587 270.4554 15.08837104134290,6917.889,95.438,540.654,538.855,0.0
51722.0,STARLINK-3535,PAYLOAD,2024-07-20 11:50:19,15.0884824,0.0001445,53.218,130.0437,107.9803,252.1347,0.00017525,2.503e-05,0.0,0 STARLINK-3535,1 51722U 22016J   24202.49327661  .00002503  00000-0  17525-3 0  9999,2 51722  53.2180 130.0437 0001445 107.9803 252.1347 15.08848240134336,6917.855,95.437,540.72,538.721,0.0
51722.0,STARLINK-3535,PAYLOAD,2024-07-20 22:58:01,15.08832785,0.0002038,53.2186,127.9681,123.1593,236.9595,1.9453e-05,2.1e-07,0.0,0 STARLINK-3535,1 51722U 22016J   24202.95696648  .00000021  00000-0  19453-4 0  9990,2 51722  53.2186 127.9681 0002038 123.1593 236.9595 15.08832785133334,6917.902,95.438,541.177,538.358,0.0
51722.0,STARLINK-3535,PAYLOAD,2024-07-21 02:08:48,15.08831091,0.0001875,53.2188,127.3742,121.375,238.7426,4.2783e-05,3.93e-06,0.0,0 STARLINK-3535,1 51722U 22016J   24203.08945087  .00000393  00000-0  42783-4 0  9993,2 51722  53.2188 127.3742 0001875 121.3750 238.7426 15.08831091134424,6917.908,95.438,541.07,538.476,0.0
51722.0,STARLINK-3535,PAYLOAD,2024-07-22 03:34:58,15.0883702,0.000145,53.2175,122.6127,108.2851,251.8299,0.00012345,1.677e-05,0.0,0 STARLINK-3535,1 51722U 22016J   24204.14928998  .00001677  00000-0  12345-3 0  9999,2 51722  53.2175 122.6127 0001450 108.2851 251.8299 15.08837020134589,6917.889,95.438,540.758,538.751,0.0
51722.0,STARLINK-3535,PAYLOAD,2024-07-22 22:39:36,15.0884057,0.0001464,53.2176,119.0447,109.7013,250.4137,0.00022044,3.222e-05,0.0,0 STARLINK-3535,1 51722U 22016J   24204.94416716  .00003222  00000-0  22044-3 0  9992,2 51722  53.2176 119.0447 0001464 109.7013 250.4137 15.08840570133631,6917.879,95.438,540.756,538.731,0.0
51722.0,STARLINK-3535,PAYLOAD,2024-07-23 01:50:21,15.08851373,0.0001275,53.2156,118.4469,92.8763,267.2375,0.00027676,4.121e-05,0.0,0 STARLINK-3535,1 51722U 22016J   24205.07664261  .00004121  00000-0  27676-3 0  9992,2 51722  53.2156 118.4469 0001275  92.8763 267.2375 15.08851373134724,6917.846,95.437,540.593,538.829,0.0
51722.0,STARLINK-3535,PAYLOAD,2024-07-23 11:22:40,15.08859082,0.000128,53.2158,116.6617,85.9547,274.1591,0.0003575,5.409e-05,0.0,0 STARLINK-3535,1 51722U 22016J   24205.47407699  .00005409  00000-0  35750-3 0  9998,2 51722  53.2158 116.6617 0001280  85.9547 274.1591 15.08859082133710,6917.822,95.436,540.573,538.802,0.0
51722.0,STARLINK-3535,PAYLOAD,2024-07-23 22:30:24,15.08822638,0.0001403,53.2162,114.5789,91.3663,268.749,-0.00015775,-2.796e-05,0.0,0 STARLINK-3535,1 51722U 22016J   24205.93777800 -.00002796  00000-0 -15775-3 0  9996,2 51722  53.2162 114.5789 0001403  91.3663 268.7490 15.08822638133780,6917.933,95.439,540.769,538.828,0.0
51722.0,STARLINK-3535,PAYLOAD,2024-07-24 03:16:33,15.08829832,0.0001551,53.2165,113.682,98.6451,261.4717,-8.3133e-05,-1.61e-05,0.0,0 STARLINK-3535,1 51722U 22016J   24206.13649334 -.00001610  00000-0 -83133-4 0  9997,2 51722  53.2165 113.6820 0001551  98.6451 261.4717 15.08829832134885,6917.911,95.438,540.849,538.704,0.0
51722.0,STARLINK-3535,PAYLOAD,2024-07-24 17:35:01,15.08841113,0.0001656,53.2164,111.0069,130.999,229.1145,0.00034983,5.284e-05,0.0,0 STARLINK-3535,1 51722U 22016J   24206.73265177  .00005284  00000-0  34983-3 0  9999,2 51722  53.2164 111.0069 0001656 130.9990 229.1145 15.08841113134977,6917.877,95.437,540.888,538.596,0.0
51722.0,STARLINK-3535,PAYLOAD,2024-07-24 22:21:10,15.08849951,0.0001486,53.2158,110.1195,100.2138,259.9022,0.00092308,0.00014437,0.0,0 STARLINK-3535,1 51722U 22016J   24206.93137279  .00014437  00000-0  92308-3 0  9997,2 51722  53.2158 110.1195 0001486 100.2138 259.9022 15.08849951133933,6917.85,95.437,540.743,538.687,0.0
51722.0,STARLINK-3535,PAYLOAD,2024-07-25 03:07:19,15.08867908,0.0001426,53.2156,109.2266,104.2504,255.8647,0.0016419,0.00025959,0.0,0 STARLINK-3535,1 51722U 22016J   24207.13009070  .00025959  00000-0  16419-2 0  9996,2 51722  53.2156 109.2266 0001426 104.2504 255.8647 15.08867908135037,6917.795,95.436,540.647,538.674,0.0
51722.0,STARLINK-3535,PAYLOAD,2024-07-25 17:25:47,15.08858946,0.0002193,53.217,106.5443,128.7323,231.3865,0.00079796,0.00012441,0.0,0 STARLINK-3535,1 51722U 22016J   24207.72624554  .00012441  00000-0  79796-3 0  9991,2 51722  53.2170 106.5443 0002193 128.7323 231.3865 15.08858946135125,6917.822,95.436,541.205,538.17,0.0
51722.0,STARLINK-3535,PAYLOAD,2024-07-25 22:11:57,15.08849328,0.0001975,53.2162,105.6505,124.7961,235.3217,0.00050663,7.786e-05,0.0,0 STARLINK-3535,1 51722U 22016J   24207.92496578  .00007786  00000-0  50663-3 0  9994,2 51722  53.2162 105.6505 0001975 124.7961 235.3217 15.08849328134089,6917.852,95.437,541.083,538.351,0.0
51722.0,STARLINK-3535,PAYLOAD,2024-07-26 02:58:06,15.08842598,0.0001342,53.2152,104.7642,113.6914,246.4219,0.00016512,2.341e-05,0.0,0 STARLINK-3535,1 51722U 22016J   24208.12368897  .00002341  00000-0  16512-3 0  9996,2 51722  53.2152 104.7642 0001342 113.6914 246.4219 15.08842598135182,6917.872,95.437,540.666,538.809,0.0
51722.0,STARLINK-3535,PAYLOAD,2024-07-27 21:53:31,15.08841252,0.0001439,53.2165,96.7345,94.6018,265.5138,0.00016247,2.299e-05,0.0,0 STARLINK-3535,1 51722U 22016J   24209.91216937  .00002299  00000-0  16247-3 0  9998,2 51722  53.2165  96.7345 0001439  94.6018 265.5138 15.08841252134385,6917.877,95.437,540.737,538.746,0.0
51722.0,STARLINK-3535,PAYLOAD,2024-07-27 23:28:54,15.0883731,0.0001247,53.2155,96.4379,85.5383,274.5751,4.5522e-05,4.37e-06,0.0,0 STARLINK-3535,1 51722U 22016J   24209.97841024  .00000437  00000-0  45522-4 0  9996,2 51722  53.2155  96.4379 0001247  85.5383 274.5751 15.08837310135460,6917.889,95.438,540.616,538.891,0.0
51722.0,STARLINK-3535,PAYLOAD,2024-07-28 23:19:42,15.08826941,0.0001535,53.2174,91.9839,102.0467,258.0697,0.00023836,3.506e-05,0.0,0 STARLINK-3535,1 51722U 22016J   24210.97201750  .00003506  00000-0  23836-3 0  9997,2 51722  53.2174  91.9839 0001535 102.0467 258.0697 15.08826941134542,6917.92,95.438,540.847,538.723,0.0
51722.0,STARLINK-3535,PAYLOAD,2024-07-29 02:30:28,15.0883335,0.0001488,53.2175,91.3863,95.2625,264.8537,0.00032172,4.835e-05,0.0,0 STARLINK-3535,1 51722U 22016J   24211.10449573  .00004835  00000-0  32172-3 0  9999,2 51722  53.2175  91.3863 0001488  95.2625 264.8537 15.08833350135631,6917.901,95.438,540.795,538.736,0.0
51722.0,STARLINK-3535,PAYLOAD,2024-07-29 08:52:00,15.08843711,0.0001444,53.2175,90.1972,93.8539,266.2618,0.00044737,6.84e-05,0.0,0 STARLINK-3535,1 51722U 22016J   24211.36945256  .00006840  00000-0  44737-3 0  9994,2 51722  53.2175  90.1972 0001444  93.8539 266.2618 15.08843711134603,6917.869,95.437,540.733,538.735,0.0
51722.0,STARLINK-3535,PAYLOAD,2024-07-29 21:35:06,15.08835402,0.0001652,53.2178,87.8221,93.335,266.7831,0.00015855,2.236e-05,0.0,0 STARLINK-3535,1 51722U 22016J   24211.89937872  .00002236  00000-0  15855-3 0  9991,2 51722  53.2178  87.8221 0001652  93.3350 266.7831 15.08835402134681,6917.894,95.438,540.902,538.617,0.0
51722.0,STARLINK-3535,PAYLOAD,2024-07-30 08:42:47,15.08856425,0.000148,53.2169,85.7357,83.6968,276.4192,0.00045115,6.903e-05,0.0,0 STARLINK-3535,1 51722U 22016J   24212.36304951  .00006903  00000-0  45115-3 0  9997,2 51722  53.2169  85.7357 0001480  83.6968 276.4192 15.08856425135827,6917.83,95.437,540.719,538.671,0.0
51722.0,STARLINK-3535,PAYLOAD,2024-07-30 15:04:20,15.08847336,0.0001788,53.2175,84.5473,89.7318,270.3879,0.0003233,4.862e-05,0.0,0 STARLINK-3535,1 51722U 22016J   24212.62801471  .00004862  00000-0  32330-3 0  9992,2 51722  53.2175  84.5473 0001788  89.7318 270.3879 15.08847336134798,6917.858,95.437,540.96,538.486,0.0
51722.0,STARLINK-3535,PAYLOAD,2024-07-30 23:01:15,15.08849456,0.0001475,53.2173,83.0609,93.9571,266.159,0.00030052,4.499e-05,0.0,0 STARLINK-3535,1 51722U 22016J   24212.95921175  .00004499  00000-0  30052-3 0  9997,2 51722  53.2173  83.0609 0001475  93.9571 266.1590 15.08849456134846,6917.851,95.437,540.737,538.696,0.0
